[{"OBJECT_NAME":"TIANMU-1 10","OBJECT_ID":"2023-101D","EPOCH":"2026-03-09T23:06:46.939392","MEAN_MOTION":15.2921896,"ECCENTRICITY":0.00069292,"INCLINATION":97.2749,"RA_OF_ASC_NODE":122.1027,"ARG_OF_PERICENTER":133.6162,"MEAN_ANOMALY":226.5654,"EPHEMERIS_TYPE":0,"CLASSIFICATION_TYPE":"U","NORAD_CAT_ID":57402,"ELEMENT_SET_NO":999,"REV_AT_EPOCH":14647,"BSTAR":0.00032238884,"MEAN_MOTION_DOT":9.075e-5,"MEAN_MOTION_DDOT":0},{"OBJECT_NAME":"STARLINK-31326","OBJECT_ID":"2024-020B","EPOCH":"2026-03-09T22:27:48.001536","MEAN_MOTION":15.30178575,"ECCENTRICITY":9.496e-5,"INCLINATION":53.1604,"RA_OF_ASC_NODE":321.6402,"ARG_OF_PERICENTER":95.7811,"MEAN_ANOMALY":264.3299,"EPHEMERIS_TYPE":0,"CLASSIFICATION_TYPE":"U","NORAD_CAT_ID":58877,"ELEMENT_SET_NO":999,"REV_AT_EPOCH":11810,"BSTAR":-3.6304298e-5,"MEAN_MOTION_DOT":-1.433e-5,"MEAN_MOTION_DDOT":0}]
